[{"OBJECT_NAME":"GEESAT-5 05","OBJECT_ID":"2025-201E","EPOCH":"2026-03-09T17:14:17.887776","MEAN_MOTION":14.83770163,"ECCENTRICITY":0.00115794,"INCLINATION":49.98,"RA_OF_ASC_NODE":140.5064,"ARG_OF_PERICENTER":255.8827,"MEAN_ANOMALY":104.0824,"EPHEMERIS_TYPE":0,"CLASSIFICATION_TYPE":"U","NORAD_CAT_ID":65554,"ELEMENT_SET_NO":999,"REV_AT_EPOCH":2702,"BSTAR":0.00036020653,"MEAN_MOTION_DOT":2.79e-5,"MEAN_MOTION_DDOT":0},{"OBJECT_NAME":"IRIDIUM 33 DEB","OBJECT_ID":"1997-051SF","EPOCH":"2026-03-08T21:02:04.326144","MEAN_MOTION":14.85703264,"ECCENTRICITY":0.00097461,"INCLINATION":86.3319,"RA_OF_ASC_NODE":290.3069,"ARG_OF_PERICENTER":211.3667,"MEAN_ANOMALY":148.6977,"EPHEMERIS_TYPE":0,"CLASSIFICATION_TYPE":"U","NORAD_CAT_ID":35797,"ELEMENT_SET_NO":999,"REV_AT_EPOCH":88618,"BSTAR":0.0020790425,"MEAN_MOTION_DOT":0.00018099,"MEAN_MOTION_DDOT":0}]
